SKYSAT-C4               
1 41771U 16058B   26195.59325766  .00010646  00000+0  19537-3 0  9990
2 41771  96.9161 216.2317 0003440 118.7398 241.4200 15.49423800549719
SKYSAT-C5               
1 41772U 16058C   26195.68933507  .00004205  00000+0  13127-3 0  9992
2 41772  97.0455 235.0967 0002493 161.8112 198.3221 15.33714813547966
SKYSAT-C2               
1 41773U 16058D   26195.63764172  .00007125  00000+0  16533-3 0  9996
2 41773  97.0156 216.7088 0001601 356.5340   3.5897 15.42672137549286
SKYSAT-C3               
1 41774U 16058E   26195.65458624  .00014766  00000+0  23229-3 0  9990
2 41774  96.8992 225.4634 0002490 132.7023 227.4442 15.53690773550378
ALSAT-1B                
1 41785U 16059C   26195.83312906 -.00000109  00000+0 -97942-5 0  9998
2 41785  97.7749 203.4038 0010280 130.7826 229.4276 14.72293036524648
PATHFINDER 1            
1 41787U 16059E   26195.81605043  .00000278  00000+0  56692-4 0  9996
2 41787  97.8177 193.8466 0029800 116.8670 243.5587 14.67692907523761
SCATSAT 1               
1 41790U 16059H   26195.73831605  .00000661  00000+0  93421-4 0  9993
2 41790  98.1179 259.7872 0055185 158.0023 202.3575 14.79586568105662
GOKTURK 1A              
1 41875U 16073A   26195.81236597  .00000024  00000+0  13895-4 0  9991
2 41875  98.1223  90.0502 0001411  79.7048 280.4313 14.62792443512865
RESOURCESAT-2A          
1 41877U 16074A   26195.80146672 -.00000109  00000+0 -29652-4 0  9991
2 41877  98.7528 269.0786 0002444  29.5146 330.6168 14.21608196498227
CARTOSAT-2D             
1 41948U 17008A   26195.82122317  .00001099  00000+0  55291-4 0  9995
2 41948  97.4099 254.6080 0005950 139.6373 220.5304 15.19281410521772
SENTINEL-2B             
1 42063U 17013A   26195.82988527  .00000029  00000+0  27616-4 0  9995
2 42063  98.5692 270.2129 0001209  91.0505 269.0817 14.30814797488592
CARTOSAT-2E             
1 42767U 17036C   26195.83898425  .00001289  00000+0  64371-4 0  9997
2 42767  97.4265 255.1830 0003186 191.0560 169.0605 15.19250546502344
FORMOSAT-5              
1 42920U 17049A   26195.84501025  .00000036  00000+0  20259-4 0  9996
2 42920  98.2247 270.5393 0011367   4.9199 355.2106 14.50907739470682
SENTINEL-5P             
1 42969U 17064A   26195.83234928 -.00000002  00000+0  20025-4 0  9995
2 42969  98.7929 137.7679 0001129  93.1727 266.9578 14.19523252453489
SKYSAT-C11              
1 42987U 17068A   26195.40750755  .00018876  00000+0  24123-3 0  9992
2 42987  97.4374 345.4561 0001131 159.6442 200.4859 15.59294676487484
SKYSAT-C10              
1 42988U 17068B   26195.67385281  .00006177  00000+0  18372-3 0  9990
2 42988  97.4537 332.8020 0001435 107.6974 252.4425 15.35109963486579
SKYSAT-C9               
1 42989U 17068C   26195.36612368  .00007549  00000+0  17779-3 0  9990
2 42989  97.4454 333.6893 0008722  47.4515 312.7467 15.42201357486948
SKYSAT-C8               
1 42990U 17068D   26195.34261580  .00006159  00000+0  16986-3 0  9991
2 42990  97.4553 332.3717 0001229 102.6122 257.5260 15.37480933486483
SKYSAT-C7               
1 42991U 17068E   26195.72758596  .00005953  00000+0  16442-3 0  9990
2 42991  97.4565 333.7538 0005764  22.9817 337.1684 15.37436195486606
SKYSAT-C6               
1 42992U 17068F   26195.34510753  .00005312  00000+0  16309-3 0  9991
2 42992  97.4602 333.2232 0005141  91.5369 268.6463 15.34160841486486
CARTOSAT-2F             
1 43111U 18004A   26195.80567315  .00000659  00000+0  34498-4 0  9992
2 43111  97.4780 255.1683 0002736 135.5647 224.5807 15.19266037471523
GAOFEN-1 02             
1 43259U 18031A   26195.88126558  .00000591  00000+0  92325-4 0  9991
2 43259  98.0521 258.3287 0001521 289.5537  70.5508 14.76472390446780
GAOFEN-1 03             
1 43260U 18031B   26195.85936208  .00000357  00000+0  58703-4 0  9993
2 43260  98.0504 258.1624 0002440  16.6302 343.4987 14.76462275446779
GAOFEN-1 04             
1 43262U 18031D   26195.83506681  .00000110  00000+0  23138-4 0  9992
2 43262  98.0522 258.3324 0001334  54.9099 305.2235 14.76470284446769
SENTINEL-3B             
1 43437U 18039A   26195.82086807  .00000033  00000+0  31777-4 0  9998
2 43437  98.6236 262.9549 0001135 119.3796 240.7498 14.26736193428066
GAOFEN-5 01             
1 43461U 18043A   26195.80612483  .00000123  00000+0  35455-4 0  9990
2 43461  98.4589 167.9754 0002110  33.0440 327.0891 14.60623086435727
GAOFEN-6                
1 43484U 18048A   26195.85759922  .00000021  00000+0  10625-4 0  9994
2 43484  98.0965 258.5584 0012130  82.5816 277.6771 14.76381968437471
GAOFEN-11 01            
1 43585U 18063A   26195.83224046  .00007215  00000+0  10495-3 0  9991
2 43585  97.1282 262.6451 0003081 200.7187 159.3944 15.56058234444645
ICESAT-2                
1 43613U 18070A   26195.78731012  .00005108  00000+0  18599-3 0  9993
2 43613  92.0097 298.4373 0005735  59.9918 300.1899 15.28173077436670
HYSIS                   
1 43719U 18096A   26195.82103443  .00000898  00000+0  12952-3 0  9992
2 43719  97.9835 262.3504 0001841  84.0909 276.0512 14.78670813411502
KAZSTSAT                
1 43783U 18099AB  26195.64967442  .00000512  00000+0  45707-4 0  9991
2 43783  97.4319 226.3401 0007383 343.2515  16.8465 14.99954847415428
