OBJECT_NAME,OBJECT_ID,EPOCH,MEAN_MOTION,ECCENTRICITY,INCLINATION,RA_OF_ASC_NODE,ARG_OF_PERICENTER,MEAN_ANOMALY,EPHEMERIS_TYPE,CLASSIFICATION_TYPE,NORAD_CAT_ID,ELEMENT_SET_NO,REV_AT_EPOCH,BSTAR,MEAN_MOTION_DOT,MEAN_MOTION_DDOT
SKYSAT-C4,2016-058B,2026-07-14T14:14:17.461824,15.49423800,.000344,96.9161,216.2317,118.7398,241.4200,0,U,41771,999,54971,.19537E-3,.10646E-3,0
SKYSAT-C5,2016-058C,2026-07-14T16:32:38.550048,15.33714813,.0002493,97.0455,235.0967,161.8112,198.3221,0,U,41772,999,54796,.13127E-3,.4205E-4,0
SKYSAT-C2,2016-058D,2026-07-14T15:18:12.244608,15.42672137,.0001601,97.0156,216.7088,356.5340,3.5897,0,U,41773,999,54928,.16533E-3,.7125E-4,0
SKYSAT-C3,2016-058E,2026-07-14T15:42:36.251136,15.53690773,.000249,96.8992,225.4634,132.7023,227.4442,0,U,41774,999,55037,.23229E-3,.14766E-3,0
ALSAT-1B,2016-059C,2026-07-14T19:59:42.350784,14.72293036,.001028,97.7749,203.4038,130.7826,229.4276,0,U,41785,999,52464,-.97942E-5,-.109E-5,0
PATHFINDER 1,2016-059E,2026-07-14T19:35:06.757152,14.67692907,.00298,97.8177,193.8466,116.8670,243.5587,0,U,41787,999,52376,.56692E-4,.278E-5,0
SCATSAT 1,2016-059H,2026-07-14T17:43:10.506720,14.79586568,.0055185,98.1179,259.7872,158.0023,202.3575,0,U,41790,999,10566,.93421E-4,.661E-5,0
GOKTURK 1A,2016-073A,2026-07-14T19:29:48.419808,14.62792443,.0001411,98.1223,90.0502,79.7048,280.4313,0,U,41875,999,51286,.13895E-4,.24E-6,0
RESOURCESAT-2A,2016-074A,2026-07-14T19:14:06.724608,14.21608196,.0002444,98.7528,269.0786,29.5146,330.6168,0,U,41877,999,49822,-.29652E-4,-.109E-5,0
CARTOSAT-2D,2017-008A,2026-07-14T19:42:33.681888,15.19281410,.000595,97.4099,254.6080,139.6373,220.5304,0,U,41948,999,52177,.55291E-4,.1099E-4,0
SENTINEL-2B,2017-013A,2026-07-14T19:55:02.087328,14.30814797,.0001209,98.5692,270.2129,91.0505,269.0817,0,U,42063,999,48859,.27616E-4,.29E-6,0
CARTOSAT-2E,2017-036C,2026-07-14T20:08:08.239200,15.19250546,.0003186,97.4265,255.1830,191.0560,169.0605,0,U,42767,999,50234,.64371E-4,.1289E-4,0
FORMOSAT-5,2017-049A,2026-07-14T20:16:48.885600,14.50907739,.0011367,98.2247,270.5393,4.9199,355.2106,0,U,42920,999,47068,.20259E-4,.36E-6,0
SENTINEL-5P,2017-064A,2026-07-14T19:58:34.977792,14.19523252,.0001129,98.7929,137.7679,93.1727,266.9578,0,U,42969,999,45348,.20025E-4,-.2E-7,0
SKYSAT-C11,2017-068A,2026-07-14T09:46:48.652320,15.59294676,.00011315,97.4374,345.4561,159.6442,200.4859,0,U,42987,999,48748,.24123399E-3,.18876E-3,0
SKYSAT-C10,2017-068B,2026-07-14T16:10:20.882784,15.35109963,.0001435,97.4537,332.8020,107.6974,252.4425,0,U,42988,999,48657,.18372E-3,.6177E-4,0
SKYSAT-C9,2017-068C,2026-07-14T08:47:13.085952,15.42201357,.00087227,97.4454,333.6893,47.4515,312.7467,0,U,42989,999,48694,.17778856E-3,.7549E-4,0
SKYSAT-C8,2017-068D,2026-07-14T08:13:22.005120,15.37480933,.00012294,97.4553,332.3717,102.6122,257.5260,0,U,42990,999,48648,.16985915E-3,.6159E-4,0
SKYSAT-C7,2017-068E,2026-07-14T17:27:43.426944,15.37436195,.0005764,97.4565,333.7538,22.9817,337.1684,0,U,42991,999,48660,.16442E-3,.5953E-4,0
SKYSAT-C6,2017-068F,2026-07-14T08:16:57.290592,15.34160841,.00051416,97.4602,333.2232,91.5369,268.6463,0,U,42992,999,48648,.16309447E-3,.5312E-4,0
CARTOSAT-2F,2018-004A,2026-07-14T19:20:10.160160,15.19266037,.0002736,97.4780,255.1683,135.5647,224.5807,0,U,43111,999,47152,.34498E-4,.659E-5,0
GAOFEN-1 02,2018-031A,2026-07-14T21:09:01.346112,14.76472390,.0001521,98.0521,258.3287,289.5537,70.5508,0,U,43259,999,44678,.92325E-4,.591E-5,0
GAOFEN-1 03,2018-031B,2026-07-14T20:37:28.883712,14.76462275,.000244,98.0504,258.1624,16.6302,343.4987,0,U,43260,999,44677,.58703E-4,.357E-5,0
GAOFEN-1 04,2018-031D,2026-07-14T20:02:29.772384,14.76470284,.0001334,98.0522,258.3324,54.9099,305.2235,0,U,43262,999,44676,.23138E-4,.11E-5,0
SENTINEL-3B,2018-039A,2026-07-14T19:42:03.001248,14.26736193,.0001135,98.6236,262.9549,119.3796,240.7498,0,U,43437,999,42806,.31777E-4,.33E-6,0
GAOFEN-5 01,2018-043A,2026-07-14T19:20:49.185312,14.60623086,.000211,98.4589,167.9754,33.0440,327.0891,0,U,43461,999,43572,.35455E-4,.123E-5,0
GAOFEN-6,2018-048A,2026-07-14T20:34:56.572608,14.76381968,.001213,98.0965,258.5584,82.5816,277.6771,0,U,43484,999,43747,.10625E-4,.21E-6,0
GAOFEN-11 01,2018-063A,2026-07-14T19:58:25.575744,15.56058234,.0003081,97.1282,262.6451,200.7187,159.3944,0,U,43585,999,44464,.10495E-3,.7215E-4,0
ICESAT-2,2018-070A,2026-07-14T18:53:43.594368,15.28173077,.0005735,92.0097,298.4373,59.9918,300.1899,0,U,43613,999,43667,.18599E-3,.5108E-4,0
HYSIS,2018-096A,2026-07-14T19:42:17.374752,14.78670813,.0001841,97.9835,262.3504,84.0909,276.0512,0,U,43719,999,41150,.12952E-3,.898E-5,0
KAZSTSAT,2018-099AB,2026-07-14T15:35:31.869888,14.99954847,.0007383,97.4319,226.3401,343.2515,16.8465,0,U,43783,999,41542,.45707E-4,.512E-5,0
